ONEWEB-0340             
1 49206U 21083W   26028.90074860  .00000087  00000+0  18876-3 0  9994
2 49206  87.9204   3.1033 0001890  82.4314 277.7033 13.18687471211619
ONEWEB-0341             
1 49207U 21083X   26028.90736134  .00000027  00000+0  36769-4 0  9990
2 49207  87.9202   3.1126 0002025  98.8474 261.2888 13.18686527211639
ONEWEB-0342             
1 49208U 21083Y   26028.80685657  .00000023  00000+0  24465-4 0  9999
2 49208  87.9227 302.2483 0001575  75.6962 284.4346 13.20773103218385
ONEWEB-0343             
1 49209U 21083Z   26028.91559529  .00000064  00000+0  13063-3 0  9996
2 49209  87.9205   3.1046 0001648 101.7727 258.3591 13.18687635211684
ONEWEB-0344             
1 49210U 21083AA  26028.86721828  .00000337  00000+0  88733-3 0  9994
2 49210  87.9007 347.9474 0001960  93.0835 267.0519 13.13470938212601
ONEWEB-0345             
1 49211U 21083AB  26028.93491787  .00000290  00000+0  75910-3 0  9992
2 49211  87.9016 347.8973 0001909  93.0477 267.0870 13.13469558212628
ONEWEB-0346             
1 49212U 21083AC  26028.91229336  .00000025  00000+0  30390-4 0  9990
2 49212  87.9198   3.1171 0002452  77.6948 282.4458 13.18684941211629
ONEWEB-0348             
1 49213U 21083AD  26028.72163177  .00000058  00000+0  10968-3 0  9994
2 49213  87.9226 302.2688 0002182  83.6698 276.4684 13.20771676218409
